<?xml version="1.0" encoding="utf-8"?>
<q:quakeml xmlns:q="http://quakeml.org/xmlns/quakeml/1.2" xmlns="http://quakeml.org/xmlns/bed/1.2" xmlns:catalog="http://anss.org/xmlns/catalog/0.1">
  <eventParameters publicID="gsc-east-3event">
    <creationInfo>
      <creationTime>2017-02-02T19:22:30.487434Z</creationTime>
      <agencyID>GSC</agencyID>
    </creationInfo>
    <event publicID="quakeml:seismo.ca/event/356108">
      <type>not reported</type>
      <creationInfo>
        <creationTime>2016-07-21T16:02:20.148970Z</creationTime>
        <agencyID>GSC</agencyID>
      </creationInfo>
      <preferredOriginID>quakeml:seismo.ca/origin/448480</preferredOriginID>
      <origin publicID="quakeml:seismo.ca/origin/448480">
        <latitude>
          <value>52.0506</value>
          <uncertainty>0.0752</uncertainty>
        </latitude>
        <longitude>
          <value>-61.0968</value>
          <uncertainty>0.1321</uncertainty>
        </longitude>
        <depth>
          <value>18000.0</value>
          <uncertainty>0.0</uncertainty>
        </depth>
        <time>
          <value>2016-07-12T03:47:06.339490Z</value>
          <uncertainty>0.37</uncertainty>
        </time>
        <quality>
          <standardError>1.2168</standardError>
          <usedPhaseCount>13</usedPhaseCount>
          <associatedPhaseCount>14</associatedPhaseCount>
          <usedStationCount>8</usedStationCount>
          <associatedStationCount>8</associatedStationCount>
          <minimumDistance>2.065</minimumDistance>
          <maximumDistance>4.649</maximumDistance>
          <azimuthalGap>119.71</azimuthalGap>
        </quality>
        <originUncertainty>
          <preferredDescription>uncertainty ellipse</preferredDescription>
          <maxHorizontalUncertainty>13230.0</maxHorizontalUncertainty>
          <minHorizontalUncertainty>6900.0</minHorizontalUncertainty>
          <azimuthMaxHorizontalUncertainty>310.86</azimuthMaxHorizontalUncertainty>
          <confidenceLevel>68.3</confidenceLevel>
        </originUncertainty>
        <methodID>smi:seismo.ca/method/dbgenloc</methodID>
        <earthModelID>smi:seismo.ca/vmodel/1dcvl/cn01</earthModelID>
        <evaluationMode>manual</evaluationMode>
        <evaluationStatus>reviewed</evaluationStatus>
        <creationInfo>
          <creationTime>2016-07-21T16:02:18.071500Z</creationTime>
          <agencyID>GSC</agencyID>
          <author>mkolaj</author>
        </creationInfo>
        <comment id="quakeml:seismo.ca/origin/448480#etype">
          <text>ke</text>
        </comment>
        <arrival publicID="quakeml:seismo.ca/assoc/448480-1378965">
          <pickID>quakeml:seismo.ca/arrival/1378965</pickID>
          <phase>Pn</phase>
          <azimuth>212.02</azimuth>
          <distance>2.065</distance>
          <timeResidual>-0.01</timeResidual>
          <timeWeight>1.0</timeWeight>
          <earthModelID>smi:seismo.ca/vmodel/1dcvl/cn01</earthModelID>
          <creationInfo>
            <creationTime>2016-07-21T16:02:07.667810Z</creationTime>
            <agencyID>GSC</agencyID>
          </creationInfo>
        </arrival>
        <arrival publicID="quakeml:seismo.ca/assoc/448480-1378966">
          <pickID>quakeml:seismo.ca/arrival/1378966</pickID>
          <phase>Pg</phase>
          <azimuth>212.02</azimuth>
          <distance>2.065</distance>
          <timeResidual>-0.413</timeResidual>
          <timeWeight>0.095</timeWeight>
          <earthModelID>smi:seismo.ca/vmodel/1dcvl/cn01</earthModelID>
          <creationInfo>
            <creationTime>2016-07-21T16:02:07.671120Z</creationTime>
            <agencyID>GSC</agencyID>
          </creationInfo>
        </arrival>
        <arrival publicID="quakeml:seismo.ca/assoc/448480-1378967">
          <pickID>quakeml:seismo.ca/arrival/1378967</pickID>
          <phase>Pn</phase>
          <azimuth>207.36</azimuth>
          <distance>2.595</distance>
          <timeResidual>0.152</timeResidual>
          <timeWeight>0.056</timeWeight>
          <earthModelID>smi:seismo.ca/vmodel/1dcvl/cn01</earthModelID>
          <creationInfo>
            <creationTime>2016-07-21T16:02:07.677450Z</creationTime>
            <agencyID>GSC</agencyID>
          </creationInfo>
        </arrival>
        <arrival publicID="quakeml:seismo.ca/assoc/448480-1378968">
          <pickID>quakeml:seismo.ca/arrival/1378968</pickID>
          <phase>Pn</phase>
          <azimuth>206.93</azimuth>
          <distance>3.083</distance>
          <timeResidual>-1.979</timeResidual>
          <timeWeight>0.013</timeWeight>
          <earthModelID>smi:seismo.ca/vmodel/1dcvl/cn01</earthModelID>
          <creationInfo>
            <creationTime>2016-07-21T16:02:07.680420Z</creationTime>
            <agencyID>GSC</agencyID>
          </creationInfo>
        </arrival>
        <arrival publicID="quakeml:seismo.ca/assoc/448480-1378969">
          <pickID>quakeml:seismo.ca/arrival/1378969</pickID>
          <phase>Pn</phase>
          <azimuth>19.71</azimuth>
          <distance>3.247</distance>
          <timeResidual>2.055</timeResidual>
          <timeWeight>0.017</timeWeight>
          <earthModelID>smi:seismo.ca/vmodel/1dcvl/cn01</earthModelID>
          <creationInfo>
            <creationTime>2016-07-21T16:02:07.686340Z</creationTime>
            <agencyID>GSC</agencyID>
          </creationInfo>
        </arrival>
        <arrival publicID="quakeml:seismo.ca/assoc/448480-1378970">
          <pickID>quakeml:seismo.ca/arrival/1378970</pickID>
          <phase>Pn</phase>
          <azimuth>139.42</azimuth>
          <distance>3.604</distance>
          <timeResidual>0.126</timeResidual>
          <timeWeight>0.047</timeWeight>
          <earthModelID>smi:seismo.ca/vmodel/1dcvl/cn01</earthModelID>
          <creationInfo>
            <creationTime>2016-07-21T16:02:07.689310Z</creationTime>
            <agencyID>GSC</agencyID>
          </creationInfo>
        </arrival>
        <arrival publicID="quakeml:seismo.ca/assoc/448480-1378971">
          <pickID>quakeml:seismo.ca/arrival/1378971</pickID>
          <phase>Sn</phase>
          <azimuth>212.02</azimuth>
          <distance>2.065</distance>
          <timeResidual>0.054</timeResidual>
          <timeWeight>0.153</timeWeight>
          <earthModelID>smi:seismo.ca/vmodel/1dcvl/cn01</earthModelID>
          <creationInfo>
            <creationTime>2016-07-21T16:02:07.674260Z</creationTime>
            <agencyID>GSC</agencyID>
          </creationInfo>
        </arrival>
        <arrival publicID="quakeml:seismo.ca/assoc/448480-1378975">
          <pickID>quakeml:seismo.ca/arrival/1378975</pickID>
          <phase>Sn</phase>
          <azimuth>207.36</azimuth>
          <distance>2.595</distance>
          <timeResidual>2.442</timeResidual>
          <timeWeight>0.0</timeWeight>
          <earthModelID>smi:seismo.ca/vmodel/1dcvl/cn01</earthModelID>
          <creationInfo>
            <creationTime>2016-07-21T16:02:07.707950Z</creationTime>
            <agencyID>GSC</agencyID>
          </creationInfo>
        </arrival>
        <arrival publicID="quakeml:seismo.ca/assoc/448480-1378977">
          <pickID>quakeml:seismo.ca/arrival/1378977</pickID>
          <phase>Pg</phase>
          <azimuth>311.43</azimuth>
          <distance>4.404</distance>
          <timeResidual>-1.861</timeResidual>
          <timeWeight>0.014</timeWeight>
          <earthModelID>smi:seismo.ca/vmodel/1dcvl/cn01</earthModelID>
          <creationInfo>
            <creationTime>2016-07-21T16:02:07.698690Z</creationTime>
            <agencyID>GSC</agencyID>
          </creationInfo>
        </arrival>
        <arrival publicID="quakeml:seismo.ca/assoc/448480-1378978">
          <pickID>quakeml:seismo.ca/arrival/1378978</pickID>
          <phase>Sn</phase>
          <azimuth>206.93</azimuth>
          <distance>3.083</distance>
          <timeResidual>1.066</timeResidual>
          <timeWeight>0.018</timeWeight>
          <earthModelID>smi:seismo.ca/vmodel/1dcvl/cn01</earthModelID>
          <creationInfo>
            <creationTime>2016-07-21T16:02:07.683270Z</creationTime>
            <agencyID>GSC</agencyID>
          </creationInfo>
        </arrival>
        <arrival publicID="quakeml:seismo.ca/assoc/448480-1378981">
          <pickID>quakeml:seismo.ca/arrival/1378981</pickID>
          <phase>Sn</phase>
          <azimuth>139.42</azimuth>
          <distance>3.604</distance>
          <timeResidual>0.911</timeResidual>
          <timeWeight>0.025</timeWeight>
          <earthModelID>smi:seismo.ca/vmodel/1dcvl/cn01</earthModelID>
          <creationInfo>
            <creationTime>2016-07-21T16:02:07.692670Z</creationTime>
            <agencyID>GSC</agencyID>
          </creationInfo>
        </arrival>
        <arrival publicID="quakeml:seismo.ca/assoc/448480-1378983">
          <pickID>quakeml:seismo.ca/arrival/1378983</pickID>
          <phase>Sn</phase>
          <azimuth>244.74</azimuth>
          <distance>3.963</distance>
          <timeResidual>0.039</timeResidual>
          <timeWeight>0.015</timeWeight>
          <earthModelID>smi:seismo.ca/vmodel/1dcvl/cn01</earthModelID>
          <creationInfo>
            <creationTime>2016-07-21T16:02:07.695670Z</creationTime>
            <agencyID>GSC</agencyID>
          </creationInfo>
        </arrival>
        <arrival publicID="quakeml:seismo.ca/assoc/448480-1378984">
          <pickID>quakeml:seismo.ca/arrival/1378984</pickID>
          <phase>Sn</phase>
          <azimuth>311.43</azimuth>
          <distance>4.404</distance>
          <timeResidual>1.211</timeResidual>
          <timeWeight>0.007</timeWeight>
          <earthModelID>smi:seismo.ca/vmodel/1dcvl/cn01</earthModelID>
          <creationInfo>
            <creationTime>2016-07-21T16:02:07.701790Z</creationTime>
            <agencyID>GSC</agencyID>
          </creationInfo>
        </arrival>
        <arrival publicID="quakeml:seismo.ca/assoc/448480-1378985">
          <pickID>quakeml:seismo.ca/arrival/1378985</pickID>
          <phase>Sn</phase>
          <azimuth>239.49</azimuth>
          <distance>4.649</distance>
          <timeResidual>2.0</timeResidual>
          <timeWeight>0.03</timeWeight>
          <earthModelID>smi:seismo.ca/vmodel/1dcvl/cn01</earthModelID>
          <creationInfo>
            <creationTime>2016-07-21T16:02:07.705000Z</creationTime>
            <agencyID>GSC</agencyID>
          </creationInfo>
        </arrival>
      </origin>
      <magnitude publicID="quakeml:seismo.ca/netmag/33881">
        <mag>
          <value>3.09</value>
          <uncertainty>0.17</uncertainty>
        </mag>
        <type>ml</type>
        <stationCount>7</stationCount>
        <originID>quakeml:seismo.ca/origin/448480</originID>
        <evaluationMode>automatic</evaluationMode>
        <evaluationStatus>preliminary</evaluationStatus>
        <creationInfo>
          <creationTime>2016-07-21T16:02:16.077280Z</creationTime>
          <agencyID>GSC</agencyID>
        </creationInfo>
      </magnitude>
      <magnitude publicID="quakeml:seismo.ca/netmag/33882">
        <mag>
          <value>2.54</value>
          <uncertainty>0.14</uncertainty>
        </mag>
        <type>mn</type>
        <stationCount>4</stationCount>
        <originID>quakeml:seismo.ca/origin/448480</originID>
        <evaluationMode>automatic</evaluationMode>
        <evaluationStatus>preliminary</evaluationStatus>
        <creationInfo>
          <creationTime>2016-07-21T16:02:15.609920Z</creationTime>
          <agencyID>GSC</agencyID>
        </creationInfo>
      </magnitude>
      <pick publicID="quakeml:seismo.ca/arrival/1378965">
        <time>
          <value>2016-07-12T03:47:40.027160Z</value>
          <uncertainty>0.048</uncertainty>
        </time>
        <waveformID stationCode="NATG" channelCode="HHZ" networkCode="CN" locationCode=""></waveformID>
        <phaseHint>Pn</phaseHint>
        <creationInfo>
          <creationTime>2016-07-13T13:43:19.206730Z</creationTime>
          <agencyID>GSC</agencyID>
          <author>mkolaj</author>
        </creationInfo>
        <evaluationMode>manual</evaluationMode>
        <evaluationStatus>reviewed</evaluationStatus>
      </pick>
      <pick publicID="quakeml:seismo.ca/arrival/1378966">
        <time>
          <value>2016-07-12T03:47:43.069850Z</value>
          <uncertainty>0.507</uncertainty>
        </time>
        <waveformID stationCode="NATG" channelCode="HHZ" networkCode="CN" locationCode=""></waveformID>
        <phaseHint>Pg</phaseHint>
        <creationInfo>
          <creationTime>2016-07-21T15:58:19.650470Z</creationTime>
          <agencyID>GSC</agencyID>
          <author>mkolaj</author>
        </creationInfo>
        <evaluationMode>manual</evaluationMode>
        <evaluationStatus>reviewed</evaluationStatus>
      </pick>
      <pick publicID="quakeml:seismo.ca/arrival/1378967">
        <time>
          <value>2016-07-12T03:47:47.378760Z</value>
          <uncertainty>0.862</uncertainty>
        </time>
        <waveformID stationCode="PCAQ" channelCode="HHZ" networkCode="CN" locationCode=""></waveformID>
        <phaseHint>Pn</phaseHint>
        <creationInfo>
          <creationTime>2016-07-13T13:43:43.901170Z</creationTime>
          <agencyID>GSC</agencyID>
          <author>mkolaj</author>
        </creationInfo>
        <evaluationMode>manual</evaluationMode>
        <evaluationStatus>reviewed</evaluationStatus>
      </pick>
      <pick publicID="quakeml:seismo.ca/arrival/1378968">
        <time>
          <value>2016-07-12T03:47:51.865030Z</value>
          <uncertainty>3.68</uncertainty>
        </time>
        <waveformID stationCode="GAAQ" channelCode="HHN" networkCode="CN" locationCode=""></waveformID>
        <phaseHint>Pn</phaseHint>
        <creationInfo>
          <creationTime>2016-07-13T13:49:35.058610Z</creationTime>
          <agencyID>GSC</agencyID>
          <author>mkolaj</author>
        </creationInfo>
        <evaluationMode>manual</evaluationMode>
        <evaluationStatus>reviewed</evaluationStatus>
      </pick>
      <pick publicID="quakeml:seismo.ca/arrival/1378969">
        <time>
          <value>2016-07-12T03:47:58.126140Z</value>
          <uncertainty>2.744</uncertainty>
        </time>
        <waveformID stationCode="MKVL" channelCode="HHZ" networkCode="PO" locationCode=""></waveformID>
        <phaseHint>Pn</phaseHint>
        <creationInfo>
          <creationTime>2016-07-13T13:45:23.632310Z</creationTime>
          <agencyID>GSC</agencyID>
          <author>mkolaj</author>
        </creationInfo>
        <evaluationMode>manual</evaluationMode>
        <evaluationStatus>reviewed</evaluationStatus>
      </pick>
      <pick publicID="quakeml:seismo.ca/arrival/1378970">
        <time>
          <value>2016-07-12T03:48:01.064840Z</value>
          <uncertainty>1.026</uncertainty>
        </time>
        <waveformID stationCode="DRLN" channelCode="BHZ" networkCode="CN" locationCode=""></waveformID>
        <phaseHint>Pn</phaseHint>
        <creationInfo>
          <creationTime>2016-07-13T13:45:51.710840Z</creationTime>
          <agencyID>GSC</agencyID>
          <author>mkolaj</author>
        </creationInfo>
        <evaluationMode>manual</evaluationMode>
        <evaluationStatus>reviewed</evaluationStatus>
      </pick>
      <pick publicID="quakeml:seismo.ca/arrival/1378971">
        <time>
          <value>2016-07-12T03:48:05.078670Z</value>
          <uncertainty>0.313</uncertainty>
        </time>
        <waveformID stationCode="NATG" channelCode="HHE" networkCode="CN" locationCode=""></waveformID>
        <phaseHint>Sn</phaseHint>
        <creationInfo>
          <creationTime>2016-07-13T13:48:35.783290Z</creationTime>
          <agencyID>GSC</agencyID>
          <author>mkolaj</author>
        </creationInfo>
        <evaluationMode>manual</evaluationMode>
        <evaluationStatus>reviewed</evaluationStatus>
      </pick>
      <pick publicID="quakeml:seismo.ca/arrival/1378975">
        <time>
          <value>2016-07-12T03:48:20.010350Z</value>
          <uncertainty>1.003</uncertainty>
        </time>
        <waveformID stationCode="PCAQ" channelCode="HHN" networkCode="CN" locationCode=""></waveformID>
        <phaseHint>Sn</phaseHint>
        <creationInfo>
          <creationTime>2016-07-21T15:58:38.073200Z</creationTime>
          <agencyID>GSC</agencyID>
          <author>mkolaj</author>
        </creationInfo>
        <evaluationMode>manual</evaluationMode>
        <evaluationStatus>reviewed</evaluationStatus>
      </pick>
      <pick publicID="quakeml:seismo.ca/arrival/1378977">
        <time>
          <value>2016-07-12T03:48:23.513890Z</value>
          <uncertainty>3.415</uncertainty>
        </time>
        <waveformID stationCode="SCHQ" channelCode="BHZ" networkCode="CN" locationCode=""></waveformID>
        <phaseHint>Pg</phaseHint>
        <creationInfo>
          <creationTime>2016-07-13T13:47:08.024100Z</creationTime>
          <agencyID>GSC</agencyID>
          <author>mkolaj</author>
        </creationInfo>
        <evaluationMode>manual</evaluationMode>
        <evaluationStatus>reviewed</evaluationStatus>
      </pick>
      <pick publicID="quakeml:seismo.ca/arrival/1378978">
        <time>
          <value>2016-07-12T03:48:30.178400Z</value>
          <uncertainty>2.691</uncertainty>
        </time>
        <waveformID stationCode="GAAQ" channelCode="HHN" networkCode="CN" locationCode=""></waveformID>
        <phaseHint>Sn</phaseHint>
        <creationInfo>
          <creationTime>2016-07-13T13:49:16.921640Z</creationTime>
          <agencyID>GSC</agencyID>
          <author>mkolaj</author>
        </creationInfo>
        <evaluationMode>manual</evaluationMode>
        <evaluationStatus>reviewed</evaluationStatus>
      </pick>
      <pick publicID="quakeml:seismo.ca/arrival/1378981">
        <time>
          <value>2016-07-12T03:48:42.402860Z</value>
          <uncertainty>1.94</uncertainty>
        </time>
        <waveformID stationCode="DRLN" channelCode="BHN" networkCode="CN" locationCode=""></waveformID>
        <phaseHint>Sn</phaseHint>
        <creationInfo>
          <creationTime>2016-07-13T13:50:43.189390Z</creationTime>
          <agencyID>GSC</agencyID>
          <author>mkolaj</author>
        </creationInfo>
        <evaluationMode>manual</evaluationMode>
        <evaluationStatus>reviewed</evaluationStatus>
      </pick>
      <pick publicID="quakeml:seismo.ca/arrival/1378983">
        <time>
          <value>2016-07-12T03:48:50.025250Z</value>
          <uncertainty>3.218</uncertainty>
        </time>
        <waveformID stationCode="SMQ" channelCode="EHZ" networkCode="CN" locationCode=""></waveformID>
        <phaseHint>Sn</phaseHint>
        <creationInfo>
          <creationTime>2016-07-13T13:42:25.314010Z</creationTime>
          <agencyID>GSC</agencyID>
          <author>mkolaj</author>
        </creationInfo>
        <evaluationMode>manual</evaluationMode>
        <evaluationStatus>reviewed</evaluationStatus>
      </pick>
      <pick publicID="quakeml:seismo.ca/arrival/1378984">
        <time>
          <value>2016-07-12T03:49:01.659990Z</value>
          <uncertainty>7.127</uncertainty>
        </time>
        <waveformID stationCode="SCHQ" channelCode="BHN" networkCode="CN" locationCode=""></waveformID>
        <phaseHint>Sn</phaseHint>
        <creationInfo>
          <creationTime>2016-07-13T13:51:47.765710Z</creationTime>
          <agencyID>GSC</agencyID>
          <author>mkolaj</author>
        </creationInfo>
        <evaluationMode>manual</evaluationMode>
        <evaluationStatus>reviewed</evaluationStatus>
      </pick>
      <pick publicID="quakeml:seismo.ca/arrival/1378985">
        <time>
          <value>2016-07-12T03:49:08.175570Z</value>
          <uncertainty>1.612</uncertainty>
        </time>
        <waveformID stationCode="ICQ" channelCode="BHE" networkCode="CN" locationCode=""></waveformID>
        <phaseHint>Sn</phaseHint>
