<?xml version="1.0" encoding="utf-8"?>
<q:quakeml xmlns="http://quakeml.org/xmlns/bed/1.2" xmlns:q="http://quakeml.org/xmlns/quakeml/1.2" xmlns:catalog="http://anss.org/xmlns/catalog/0.1">
	<eventParameters publicID="example/gsc-east-3event">
		<comment>
			<text>Antelope QuakeML conversion using event2qml software.</text>
		</comment>
		<event publicID="quakeml:xx.local/event/00356108" catalog:eventsource="mkolaj">
			<origin catalog:datasource="mkolaj mnml" publicID="quakeml:xx.local/origin/448480">
				<earthModelID>vmodel/cn01</earthModelID>
				<arrival publicID="quakeml:xx.local/arrival/1378965/448480">
					<earthModelID>quakeml:xx.local/vmodel/1dcvl_cn01</earthModelID>
					<distance>2.065</distance>
					<pickID>quakeml:xx.local/pick/1378965</pickID>
					<azimuth>212.02</azimuth>
					<phase>Pn</phase>
					<creationInfo>
						<creationTime>2016-07-21T16:02:07.668Z</creationTime>
					</creationInfo>
					<timeResidual>-0.01</timeResidual>
					<timeWeight>1.0</timeWeight>
				</arrival>
				<arrival publicID="quakeml:xx.local/arrival/1378966/448480">
					<earthModelID>quakeml:xx.local/vmodel/1dcvl_cn01</earthModelID>
					<distance>2.065</distance>
					<pickID>quakeml:xx.local/pick/1378966</pickID>
					<azimuth>212.02</azimuth>
					<phase>Pg</phase>
					<creationInfo>
						<creationTime>2016-07-21T16:02:07.671Z</creationTime>
					</creationInfo>
					<timeResidual>-0.413</timeResidual>
					<timeWeight>0.095</timeWeight>
				</arrival>
				<arrival publicID="quakeml:xx.local/arrival/1378971/448480">
					<earthModelID>quakeml:xx.local/vmodel/1dcvl_cn01</earthModelID>
					<distance>2.065</distance>
					<pickID>quakeml:xx.local/pick/1378971</pickID>
					<azimuth>212.02</azimuth>
					<phase>Sn</phase>
					<creationInfo>
						<creationTime>2016-07-21T16:02:07.674Z</creationTime>
					</creationInfo>
					<timeResidual>0.054</timeResidual>
					<timeWeight>0.153</timeWeight>
				</arrival>
				<arrival publicID="quakeml:xx.local/arrival/1378967/448480">
					<earthModelID>quakeml:xx.local/vmodel/1dcvl_cn01</earthModelID>
					<distance>2.595</distance>
					<pickID>quakeml:xx.local/pick/1378967</pickID>
					<azimuth>207.36</azimuth>
					<phase>Pn</phase>
					<creationInfo>
						<creationTime>2016-07-21T16:02:07.677Z</creationTime>
					</creationInfo>
					<timeResidual>0.152</timeResidual>
					<timeWeight>0.056</timeWeight>
				</arrival>
				<arrival publicID="quakeml:xx.local/arrival/1378975/448480">
					<earthModelID>quakeml:xx.local/vmodel/1dcvl_cn01</earthModelID>
					<distance>2.595</distance>
					<pickID>quakeml:xx.local/pick/1378975</pickID>
					<azimuth>207.36</azimuth>
					<phase>Sn</phase>
					<creationInfo>
						<creationTime>2016-07-21T16:02:07.708Z</creationTime>
					</creationInfo>
					<timeResidual>2.442</timeResidual>
					<timeWeight>0.0</timeWeight>
				</arrival>
				<arrival publicID="quakeml:xx.local/arrival/1378978/448480">
					<earthModelID>quakeml:xx.local/vmodel/1dcvl_cn01</earthModelID>
					<distance>3.083</distance>
					<pickID>quakeml:xx.local/pick/1378978</pickID>
					<azimuth>206.93</azimuth>
					<phase>Sn</phase>
					<creationInfo>
						<creationTime>2016-07-21T16:02:07.683Z</creationTime>
					</creationInfo>
					<timeResidual>1.066</timeResidual>
					<timeWeight>0.018</timeWeight>
				</arrival>
				<arrival publicID="quakeml:xx.local/arrival/1378968/448480">
					<earthModelID>quakeml:xx.local/vmodel/1dcvl_cn01</earthModelID>
					<distance>3.083</distance>
					<pickID>quakeml:xx.local/pick/1378968</pickID>
					<azimuth>206.93</azimuth>
					<phase>Pn</phase>
					<creationInfo>
						<creationTime>2016-07-21T16:02:07.680Z</creationTime>
					</creationInfo>
					<timeResidual>-1.979</timeResidual>
					<timeWeight>0.013</timeWeight>
				</arrival>
				<arrival publicID="quakeml:xx.local/arrival/1378969/448480">
					<earthModelID>quakeml:xx.local/vmodel/1dcvl_cn01</earthModelID>
					<distance>3.247</distance>
					<pickID>quakeml:xx.local/pick/1378969</pickID>
					<azimuth>19.71</azimuth>
					<phase>Pn</phase>
					<creationInfo>
						<creationTime>2016-07-21T16:02:07.686Z</creationTime>
					</creationInfo>
					<timeResidual>2.055</timeResidual>
					<timeWeight>0.017</timeWeight>
				</arrival>
				<arrival publicID="quakeml:xx.local/arrival/1378981/448480">
					<earthModelID>quakeml:xx.local/vmodel/1dcvl_cn01</earthModelID>
					<distance>3.604</distance>
					<pickID>quakeml:xx.local/pick/1378981</pickID>
					<azimuth>139.42</azimuth>
					<phase>Sn</phase>
					<creationInfo>
						<creationTime>2016-07-21T16:02:07.693Z</creationTime>
					</creationInfo>
					<timeResidual>0.911</timeResidual>
					<timeWeight>0.025</timeWeight>
				</arrival>
				<arrival publicID="quakeml:xx.local/arrival/1378970/448480">
					<earthModelID>quakeml:xx.local/vmodel/1dcvl_cn01</earthModelID>
					<distance>3.604</distance>
					<pickID>quakeml:xx.local/pick/1378970</pickID>
					<azimuth>139.42</azimuth>
					<phase>Pn</phase>
					<creationInfo>
						<creationTime>2016-07-21T16:02:07.689Z</creationTime>
					</creationInfo>
					<timeResidual>0.126</timeResidual>
					<timeWeight>0.047</timeWeight>
				</arrival>
				<arrival publicID="quakeml:xx.local/arrival/1378983/448480">
					<earthModelID>quakeml:xx.local/vmodel/1dcvl_cn01</earthModelID>
					<distance>3.963</distance>
					<pickID>quakeml:xx.local/pick/1378983</pickID>
					<azimuth>244.74</azimuth>
					<phase>Sn</phase>
					<creationInfo>
						<creationTime>2016-07-21T16:02:07.696Z</creationTime>
					</creationInfo>
					<timeResidual>0.039</timeResidual>
					<timeWeight>0.015</timeWeight>
				</arrival>
				<arrival publicID="quakeml:xx.local/arrival/1378977/448480">
					<earthModelID>quakeml:xx.local/vmodel/1dcvl_cn01</earthModelID>
					<distance>4.404</distance>
					<pickID>quakeml:xx.local/pick/1378977</pickID>
					<azimuth>311.43</azimuth>
					<phase>Pg</phase>
					<creationInfo>
						<creationTime>2016-07-21T16:02:07.699Z</creationTime>
					</creationInfo>
					<timeResidual>-1.861</timeResidual>
					<timeWeight>0.014</timeWeight>
				</arrival>
				<arrival publicID="quakeml:xx.local/arrival/1378984/448480">
					<earthModelID>quakeml:xx.local/vmodel/1dcvl_cn01</earthModelID>
					<distance>4.404</distance>
					<pickID>quakeml:xx.local/pick/1378984</pickID>
					<azimuth>311.43</azimuth>
					<phase>Sn</phase>
					<creationInfo>
						<creationTime>2016-07-21T16:02:07.702Z</creationTime>
					</creationInfo>
					<timeResidual>1.211</timeResidual>
					<timeWeight>0.007</timeWeight>
				</arrival>
				<arrival publicID="quakeml:xx.local/arrival/1378985/448480">
					<earthModelID>quakeml:xx.local/vmodel/1dcvl_cn01</earthModelID>
					<distance>4.649</distance>
					<pickID>quakeml:xx.local/pick/1378985</pickID>
					<azimuth>239.49</azimuth>
					<phase>Sn</phase>
					<creationInfo>
						<creationTime>2016-07-21T16:02:07.705Z</creationTime>
					</creationInfo>
					<timeResidual>2.0</timeResidual>
					<timeWeight>0.03</timeWeight>
				</arrival>
				<methodID>method/dbgenloc</methodID>
				<originUncertainty>
					<maxHorizontalUncertainty>13225.9</maxHorizontalUncertainty>
					<minHorizontalUncertainty>6898.5</minHorizontalUncertainty>
					<azimuthMaxHorizontalUncertainty>310.86</azimuthMaxHorizontalUncertainty>
					<preferredDescription>uncertainty ellipse</preferredDescription>
				</originUncertainty>
				<quality>
					<usedPhaseCount>13</usedPhaseCount>
					<associatedPhaseCount>14</associatedPhaseCount>
					<standardError>1.2168</standardError>
				</quality>
				<evaluationStatus>reviewed</evaluationStatus>
				<creationInfo>
					<creationTime>2016-07-21T16:02:18.072Z</creationTime>
					<agencyID>GSC</agencyID>
					<author>mkolaj</author>
				</creationInfo>
				<evaluationMode>manual</evaluationMode>
				<longitude>
					<uncertainty>0.131907842012</uncertainty>
					<value>-61.0968</value>
				</longitude>
				<depth>
					<uncertainty>0.0</uncertainty>
					<value>18000.0</value>
				</depth>
				<time>
					<uncertainty>370.0</uncertainty>
					<value>2016-07-12T03:47:06.339Z</value>
				</time>
				<latitude>
					<uncertainty>0.0748130745068</uncertainty>
					<value>52.0506</value>
				</latitude>
			</origin>
			<preferredOriginID>quakeml:xx.local/origin/448480</preferredOriginID>
			<certainty></certainty>
			<creationInfo>
				<creationTime>2017-02-03T19:57:34.957Z</creationTime>
				<agencyID>GSC</agencyID>
				<author>mkolaj</author>
			</creationInfo>
			<magnitude publicID="quakeml:xx.local/magnitude/33882">
				<methodID>dbevproc</methodID>
				<creationInfo>
					<creationTime>2016-07-21T16:02:15.610Z</creationTime>
				</creationInfo>
				<stationCount>4</stationCount>
				<mag>
					<uncertainty>0.14</uncertainty>
					<value>2.54</value>
				</mag>
				<type>mn</type>
				<originID>quakeml:xx.local/origin/448480</originID>
			</magnitude>
			<magnitude publicID="quakeml:xx.local/magnitude/33881">
				<methodID>dbevproc</methodID>
				<creationInfo>
					<creationTime>2016-07-21T16:02:16.077Z</creationTime>
				</creationInfo>
				<stationCount>7</stationCount>
				<mag>
					<uncertainty>0.17</uncertainty>
					<value>3.09</value>
				</mag>
				<type>ml</type>
				<originID>quakeml:xx.local/origin/448480</originID>
			</magnitude>
			<amplitude publicID="quakeml:xx.local/amplitude/1378988/SMQ">
				<magnitudeHint>mn</magnitudeHint>
				<period>
					<value>0.1</value>
				</period>
				<snr>3.5667</snr>
				<unit>m/s</unit>
				<methodID>dbevproc</methodID>
				<creationInfo>
					<creationTime>2016-07-13T13:52:35.047Z</creationTime>
				</creationInfo>
				<waveformID channelCode="EHZ" locationCode="" networkCode="CN" stationCode="SMQ"></waveformID>
				<timeWindow>
					<begin>0</begin>
					<end>0</end>
					<reference>2016-07-12T03:49:19.220Z</reference>
				</timeWindow>
				<amplitude>
					<value></value>
				</amplitude>
				<type>AMN</type>
			</amplitude>
			<amplitude publicID="quakeml:xx.local/amplitude/1378988/SMQ">
				<magnitudeHint>mn</magnitudeHint>
				<period>
					<value>0.1</value>
				</period>
				<snr>3.5667</snr>
				<unit>m/s</unit>
				<methodID>dbevproc</methodID>
				<creationInfo>
					<creationTime>2016-07-13T13:52:35.047Z</creationTime>
				</creationInfo>
				<waveformID channelCode="EHZ" locationCode="" networkCode="CN" stationCode="SMQ"></waveformID>
				<timeWindow>
					<begin>0</begin>
					<end>0</end>
					<reference>2016-07-12T03:49:19.220Z</reference>
				</timeWindow>
				<amplitude>
					<value></value>
				</amplitude>
				<type>AMN</type>
			</amplitude>
			<amplitude publicID="quakeml:xx.local/amplitude/1378979/MKVL">
				<magnitudeHint>mn</magnitudeHint>
				<period>
					<value>0.02</value>
				</period>
				<snr>2.0489</snr>
				<unit>m/s</unit>
				<methodID>dbevproc</methodID>
				<creationInfo>
					<creationTime>2016-07-13T13:52:35.087Z</creationTime>
				</creationInfo>
				<waveformID channelCode="HHZ" locationCode="" networkCode="PO" stationCode="MKVL"></waveformID>
				<timeWindow>
					<begin>0</begin>
					<end>0</end>
					<reference>2016-07-12T03:48:40.130Z</reference>
				</timeWindow>
				<amplitude>
					<value></value>
				</amplitude>
				<type>AMN</type>
			</amplitude>
			<amplitude publicID="quakeml:xx.local/amplitude/1378979/MKVL">
				<magnitudeHint>mn</magnitudeHint>
				<period>
					<value>0.02</value>
				</period>
				<snr>2.0489</snr>
				<unit>m/s</unit>
				<methodID>dbevproc</methodID>
				<creationInfo>
					<creationTime>2016-07-13T13:52:35.087Z</creationTime>
				</creationInfo>
				<waveformID channelCode="HHZ" locationCode="" networkCode="PO" stationCode="MKVL"></waveformID>
				<timeWindow>
					<begin>0</begin>
					<end>0</end>
					<reference>2016-07-12T03:48:40.130Z</reference>
				</timeWindow>
				<amplitude>
					<value></value>
				</amplitude>
				<type>AMN</type>
			</amplitude>
			<amplitude publicID="quakeml:xx.local/amplitude/1378982/PCAQ">
				<magnitudeHint>mn</magnitudeHint>
				<period>
					<value>0.64</value>
				</period>
				<snr>3.5775</snr>
				<unit>m/s</unit>
				<methodID>dbevproc</methodID>
				<creationInfo>
					<creationTime>2016-07-13T13:52:35.095Z</creationTime>
				</creationInfo>
				<waveformID channelCode="HHZ" locationCode="" networkCode="CN" stationCode="PCAQ"></waveformID>
				<timeWindow>
					<begin>0</begin>
					<end>0</end>
					<reference>2016-07-12T03:48:48.070Z</reference>
				</timeWindow>
				<amplitude>
					<value></value>
				</amplitude>
				<type>AMN</type>
			</amplitude>
			<amplitude publicID="quakeml:xx.local/amplitude/1378982/PCAQ">
				<magnitudeHint>mn</magnitudeHint>
				<period>
					<value>0.64</value>
				</period>
				<snr>3.5775</snr>
				<unit>m/s</unit>
				<methodID>dbevproc</methodID>
				<creationInfo>
					<creationTime>2016-07-13T13:52:35.095Z</creationTime>
				</creationInfo>
				<waveformID channelCode="HHZ" locationCode="" networkCode="CN" stationCode="PCAQ"></waveformID>
				<timeWindow>
					<begin>0</begin>
					<end>0</end>
					<reference>2016-07-12T03:48:48.070Z</reference>
				</timeWindow>
				<amplitude>
					<value></value>
				</amplitude>
				<type>AMN</type>
			</amplitude>
			<amplitude publicID="quakeml:xx.local/amplitude/1378974/NATG">
				<magnitudeHint>mn</magnitudeHint>
				<period>
					<value>0.14</value>
				</period>
				<snr>1.5968</snr>
				<unit>m/s</unit>
				<methodID>dbevproc</methodID>
				<creationInfo>
					<creationTime>2016-07-13T13:52:35.103Z</creationTime>
				</creationInfo>
				<waveformID channelCode="HHZ" locationCode="" networkCode="CN" stationCode="NATG"></waveformID>
				<timeWindow>
					<begin>0</begin>
					<end>0</end>
					<reference>2016-07-12T03:48:09.830Z</reference>
				</timeWindow>
				<amplitude>
					<value></value>
				</amplitude>
				<type>AMN</type>
			</amplitude>
			<amplitude publicID="quakeml:xx.local/amplitude/1378974/NATG">
				<magnitudeHint>mn</magnitudeHint>
				<period>
					<value>0.14</value>
				</period>
				<snr>1.5968</snr>
				<unit>m/s</unit>
				<methodID>dbevproc</methodID>
				<creationInfo>
					<creationTime>2016-07-13T13:52:35.103Z</creationTime>
				</creationInfo>
				<waveformID channelCode="HHZ" locationCode="" networkCode="CN" stationCode="NATG"></waveformID>
				<timeWindow>
					<begin>0</begin>
					<end>0</end>
					<reference>2016-07-12T03:48:09.830Z</reference>
				</timeWindow>
				<amplitude>
					<value></value>
				</amplitude>
				<type>AMN</type>
			</amplitude>
			<amplitude publicID="quakeml:xx.local/amplitude/1378986/DRLN">
				<magnitudeHint>ml</magnitudeHint>
				<period>
					<value></value>
				</period>
				<snr>2.3528</snr>
				<unit>m</unit>
				<methodID>dbevproc</methodID>
				<creationInfo>
					<creationTime>2016-07-13T13:52:35.426Z</creationTime>
				</creationInfo>
				<waveformID channelCode="BHN" locationCode="" networkCode="CN" stationCode="DRLN"></waveformID>
				<timeWindow>
					<begin>0</begin>
					<end>0</end>
					<reference>2016-07-12T03:49:10.900Z</reference>
				</timeWindow>
				<amplitude>
					<value></value>
				</amplitude>
				<type>AML</type>
			</amplitude>
			<amplitude publicID="quakeml:xx.local/amplitude/1378986/DRLN">
				<magnitudeHint>ml</magnitudeHint>
				<period>
					<value></value>
				</period>
				<snr>2.3528</snr>
				<unit>m</unit>
				<methodID>dbevproc</methodID>
				<creationInfo>
					<creationTime>2016-07-13T13:52:35.426Z</creationTime>
				</creationInfo>
				<waveformID channelCode="BHN" locationCode="" networkCode="CN" stationCode="DRLN"></waveformID>
				<timeWindow>
					<begin>0</begin>
					<end>0</end>
					<reference>2016-07-12T03:49:10.900Z</reference>
				</timeWindow>
				<amplitude>
					<value></value>
				</amplitude>
				<type>AML</type>
			</amplitude>
			<amplitude publicID="quakeml:xx.local/amplitude/1378989/ICQ">
				<magnitudeHint>ml</magnitudeHint>
				<period>
					<value></value>
				</period>
				<snr>2.0846</snr>
				<unit>m</unit>
				<methodID>dbevproc</methodID>
				<creationInfo>
					<creationTime>2016-07-13T13:52:35.435Z</creationTime>
				</creationInfo>
				<waveformID channelCode="BHE" locationCode="" networkCode="CN" stationCode="ICQ"></waveformID>
				<timeWindow>
					<begin>0</begin>
					<end>0</end>
					<reference>2016-07-12T03:50:06.475Z</reference>
				</timeWindow>
				<amplitude>
					<value></value>
				</amplitude>
				<type>AML</type>
			</amplitude>
			<amplitude publicID="quakeml:xx.local/amplitude/1378989/ICQ">
				<magnitudeHint>ml</magnitudeHint>
				<period>
					<value></value>
				</period>
				<snr>2.0846</snr>
				<unit>m</unit>
				<methodID>dbevproc</methodID>
				<creationInfo>
					<creationTime>2016-07-13T13:52:35.435Z</creationTime>
				</creationInfo>
				<waveformID channelCode="BHE" locationCode="" networkCode="CN" stationCode="ICQ"></waveformID>
				<timeWindow>
					<begin>0</begin>
					<end>0</end>
					<reference>2016-07-12T03:50:06.475Z</reference>
				</timeWindow>
				<amplitude>
					<value></value>
				</amplitude>
				<type>AML</type>
			</amplitude>
			<amplitude publicID="quakeml:xx.local/amplitude/1378987/SCHQ">
				<magnitudeHint>ml</magnitudeHint>
				<period>
					<value></value>
				</period>
				<snr>2.3179</snr>
				<unit>m</unit>
				<methodID>dbevproc</methodID>
				<creationInfo>
					<creationTime>2016-07-13T13:52:35.444Z</creationTime>
				</creationInfo>
				<waveformID channelCode="BHE" locationCode="" networkCode="CN" stationCode="SCHQ"></waveformID>
				<timeWindow>
					<begin>0</begin>
					<end>0</end>
					<reference>2016-07-12T03:49:16.225Z</reference>
				</timeWindow>
				<amplitude>
					<value></value>
				</amplitude>
				<type>AML</type>
			</amplitude>
			<amplitude publicID="quakeml:xx.local/amplitude/1378987/SCHQ">
				<magnitudeHint>ml</magnitudeHint>
				<period>
					<value></value>
				</period>
				<snr>2.3179</snr>
				<unit>m</unit>
				<methodID>dbevproc</methodID>
				<creationInfo>
					<creationTime>2016-07-13T13:52:35.444Z</creationTime>
				</creationInfo>
				<waveformID channelCode="BHE" locationCode="" networkCode="CN" stationCode="SCHQ"></waveformID>
				<timeWindow>
					<begin>0</begin>
					<end>0</end>
					<reference>2016-07-12T03:49:16.225Z</reference>
				</timeWindow>
				<amplitude>
					<value></value>
				</amplitude>
				<type>AML</type>
			</amplitude>
			<amplitude publicID="quakeml:xx.local/amplitude/1378973/MKVL">
				<magnitudeHint>ml</magnitudeHint>
				<period>
					<value></value>
				</period>
				<snr>2.2401</snr>
				<unit>m</unit>
				<methodID>dbevproc</methodID>
				<creationInfo>
					<creationTime>2016-07-13T13:52:35.452Z</creationTime>
				</creationInfo>
				<waveformID channelCode="HHN" locationCode="" networkCode="PO" stationCode="MKVL"></waveformID>
				<timeWindow>
					<begin>0</begin>
					<end>0</end>
					<reference>2016-07-12T03:48:09.280Z</reference>
				</timeWindow>
				<amplitude>
					<value></value>
				</amplitude>
				<type>AML</type>
			</amplitude>
			<amplitude publicID="quakeml:xx.local/amplitude/1378973/MKVL">
				<magnitudeHint>ml</magnitudeHint>
				<period>
					<value></value>
				</period>
				<snr>2.2401</snr>
				<unit>m</unit>
				<methodID>dbevproc</methodID>
				<creationInfo>
					<creationTime>2016-07-13T13:52:35.452Z</creationTime>
				</creationInfo>
				<waveformID channelCode="HHN" locationCode="" networkCode="PO" stationCode="MKVL"></waveformID>
				<timeWindow>
					<begin>0</begin>
					<end>0</end>
					<reference>2016-07-12T03:48:09.280Z</reference>
				</timeWindow>
				<amplitude>
					<value></value>
				</amplitude>
				<type>AML</type>
			</amplitude>
			<amplitude publicID="quakeml:xx.local/amplitude/1378972/PCAQ">
				<magnitudeHint>ml</magnitudeHint>
				<period>
					<value></value>
				</period>
				<snr>3.7725</snr>
				<unit>m</unit>
				<methodID>dbevproc</methodID>
				<creationInfo>
					<creationTime>2016-07-13T13:52:35.460Z</creationTime>
				</creationInfo>
